ONEWEB-0233             
1 48795U 21045AE  24232.45332715  .00000119  00000+0  28327-3 0  9993
2 48795  87.9046  31.9141 0001518  99.6171 260.5131 13.15547627156636
ONEWEB-0190             
1 48796U 21045AF  24233.20043615  .00000217  00000+0  54308-3 0  9993
2 48796  87.9048  31.7254 0000783 111.8103 248.3110 13.15548159157922
ONEWEB-0236             
1 48797U 21045AG  24232.45729258  .00000113  00000+0  26516-3 0  9999
2 48797  87.9052  31.8691 0001663  95.2725 264.8595 13.15548602156592
ONEWEB-0248             
1 48798U 21045AH  24232.39391245 -.00000068  00000+0 -21472-3 0  9991
2 48798  87.9041  31.8669 0001414 119.9392 240.1879 13.15550513156747
ONEWEB-0225             
1 48799U 21045AJ  24232.87244135 -.00000019  00000+0 -83935-4 0  9999
2 48799  87.9043  31.7869 0001348 101.4277 258.7004 13.15547535157954
ONEWEB-0215             
1 48800U 21045AK  24232.38600036 -.00000041  00000+0 -14293-3 0  9999
2 48800  87.9041  31.8540 0001124 119.3210 240.8033 13.15551917156625
ONEWEB-0216             
1 48801U 21045AL  24232.85184244 -.00000099  00000+0 -29690-3 0  9990
2 48801  87.9047  31.8034 0001594  85.7222 274.4090 13.15548059157811
ONEWEB-0239             
1 48802U 21045AM  24232.85659080 -.00000123  00000+0 -36176-3 0  9991
2 48802  87.9052  31.7830 0001360 127.0201 233.1054 13.15547678157873
